{"type": "FeatureCollection", "features": [{"type": "Feature", "properties": {"norad_id": 25590, "name": "COSMOS 2361", "group": "musson", "lat": 34.16554142441778, "lon": 149.1568902126061, "alt_km": 982.1062331589819, "timestamp": "2025-12-26T09:30:53.907707+00:00", "meta": {"OBJECT_NAME": "COSMOS 2361", "OBJECT_ID": "1998-076A", "EPOCH": "2025-12-26T00:22:01.526880", "MEAN_MOTION": 13.73218941, "ECCENTRICITY": 0.0030355, "INCLINATION": 82.9346, "RA_OF_ASC_NODE": 334.2672, "ARG_OF_PERICENTER": 227.1925, "MEAN_ANOMALY": 195.3497, "EPHEMERIS_TYPE": 0, "CLASSIFICATION_TYPE": "U", "NORAD_CAT_ID": 25590, "ELEMENT_SET_NO": 999, "REV_AT_EPOCH": 35293, "BSTAR": 5.6917e-05, "MEAN_MOTION_DOT": 6.8e-07, "MEAN_MOTION_DDOT": 0}, "tle": {"line1": "1 25590U 98076A   25360.01529545  .00000068  00000+0  56917-4 0  9993", "line2": "2 25590  82.9346 334.2672 0030355 227.1925 195.3497 13.73218941352935"}}, "geometry": {"type": "Point", "coordinates": [149.1568902126061, 34.16554142441778]}}, {"type": "Feature", "properties": {"norad_id": 26818, "name": "COSMOS 2378", "group": "musson", "lat": -80.85722180482644, "lon": -139.92166506311167, "alt_km": 995.2352461931723, "timestamp": "2025-12-26T09:30:53.907730+00:00", "meta": {"OBJECT_NAME": "COSMOS 2378", "OBJECT_ID": "2001-023A", "EPOCH": "2025-12-26T01:33:12.760128", "MEAN_MOTION": 13.74143053, "ECCENTRICITY": 0.0033248, "INCLINATION": 82.9272, "RA_OF_ASC_NODE": 349.8438, "ARG_OF_PERICENTER": 167.5875, "MEAN_ANOMALY": 256.1209, "EPHEMERIS_TYPE": 0, "CLASSIFICATION_TYPE": "U", "NORAD_CAT_ID": 26818, "ELEMENT_SET_NO": 999, "REV_AT_EPOCH": 23106, "BSTAR": 4.0775e-05, "MEAN_MOTION_DOT": 5.4e-07, "MEAN_MOTION_DDOT": 0}, "tle": {"line1": "1 26818U 01023A   25360.06473102  .00000054  00000+0  40775-4 0  9995", "line2": "2 26818  82.9272 349.8438 0033248 167.5875 256.1209 13.74143053231063"}}, "geometry": {"type": "Point", "coordinates": [-139.92166506311167, -80.85722180482644]}}, {"type": "Feature", "properties": {"norad_id": 27436, "name": "COSMOS 2389", "group": "musson", "lat": 18.94628667320822, "lon": 114.44145615761686, "alt_km": 1006.6767168454498, "timestamp": "2025-12-26T09:30:53.907744+00:00", "meta": {"OBJECT_NAME": "COSMOS 2389", "OBJECT_ID": "2002-026A", "EPOCH": "2025-12-25T22:34:39.670752", "MEAN_MOTION": 13.75156034, "ECCENTRICITY": 0.0047036, "INCLINATION": 82.9514, "RA_OF_ASC_NODE": 297.2128, "ARG_OF_PERICENTER": 24.6878, "MEAN_ANOMALY": 40.9448, "EPHEMERIS_TYPE": 0, "CLASSIFICATION_TYPE": "U", "NORAD_CAT_ID": 27436, "ELEMENT_SET_NO": 999, "REV_AT_EPOCH": 18330, "BSTAR": 6.172e-05, "MEAN_MOTION_DOT": 7.5e-07, "MEAN_MOTION_DDOT": 0}, "tle": {"line1": "1 27436U 02026A   25359.94073693  .00000075  00000+0  61720-4 0  9998", "line2": "2 27436  82.9514 297.2128 0047036  24.6878  40.9448 13.75156034183308"}}, "geometry": {"type": "Point", "coordinates": [114.44145615761686, 18.94628667320822]}}, {"type": "Feature", "properties": {"norad_id": 27818, "name": "COSMOS 2398", "group": "musson", "lat": -23.14149575746089, "lon": -100.3974121549404, "alt_km": 999.9216241693784, "timestamp": "2025-12-26T09:30:53.907756+00:00", "meta": {"OBJECT_NAME": "COSMOS 2398", "OBJECT_ID": "2003-023A", "EPOCH": "2025-12-26T03:10:15.789216", "MEAN_MOTION": 13.72387194, "ECCENTRICITY": 0.0032681, "INCLINATION": 82.9482, "RA_OF_ASC_NODE": 262.8298, "ARG_OF_PERICENTER": 76.134, "MEAN_ANOMALY": 35.8048, "EPHEMERIS_TYPE": 0, "CLASSIFICATION_TYPE": "U", "NORAD_CAT_ID": 27818, "ELEMENT_SET_NO": 999, "REV_AT_EPOCH": 13000, "BSTAR": 6.5421e-05, "MEAN_MOTION_DOT": 7.5e-07, "MEAN_MOTION_DDOT": 0}, "tle": {"line1": "1 27818U 03023A   25360.13212719  .00000075  00000+0  65421-4 0  9999", "line2": "2 27818  82.9482 262.8298 0032681  76.1340  35.8048 13.72387194130006"}}, "geometry": {"type": "Point", "coordinates": [-100.3974121549404, -23.14149575746089]}}, {"type": "Feature", "properties": {"norad_id": 28380, "name": "COSMOS 2407", "group": "musson", "lat": 5.484906675148367, "lon": -156.5391588101113, "alt_km": 950.5661821308677, "timestamp": "2025-12-26T09:30:53.907767+00:00", "meta": {"OBJECT_NAME": "COSMOS 2407", "OBJECT_ID": "2004-028A", "EPOCH": "2025-12-26T01:31:13.832256", "MEAN_MOTION": 13.763151, "ECCENTRICITY": 0.0039683, "INCLINATION": 82.9593, "RA_OF_ASC_NODE": 203.0276, "ARG_OF_PERICENTER": 18.3923, "MEAN_ANOMALY": 137.8378, "EPHEMERIS_TYPE": 0, "CLASSIFICATION_TYPE": "U", "NORAD_CAT_ID": 28380, "ELEMENT_SET_NO": 999, "REV_AT_EPOCH": 7606, "BSTAR": 3.6024e-05, "MEAN_MOTION_DOT": 5.1e-07, "MEAN_MOTION_DDOT": 0}, "tle": {"line1": "1 28380U 04028A   25360.06335454  .00000051  00000+0  36024-4 0  9995", "line2": "2 28380  82.9593 203.0276 0039683  18.3923 137.8378 13.76315100 76067"}}, "geometry": {"type": "Point", "coordinates": [-156.5391588101113, 5.484906675148367]}}, {"type": "Feature", "properties": {"norad_id": 28521, "name": "COSMOS 2414", "group": "musson", "lat": 60.80033957865151, "lon": -18.462145867904958, "alt_km": 901.0162587255309, "timestamp": "2025-12-26T09:30:53.907778+00:00", "meta": {"OBJECT_NAME": "COSMOS 2414", "OBJECT_ID": "2005-002A", "EPOCH": "2025-12-26T00:17:54.606048", "MEAN_MOTION": 13.87904624, "ECCENTRICITY": 0.004143, "INCLINATION": 82.9488, "RA_OF_ASC_NODE": 174.6231, "ARG_OF_PERICENTER": 102.9062, "MEAN_ANOMALY": 257.6734, "EPHEMERIS_TYPE": 0, "CLASSIFICATION_TYPE": "U", "NORAD_CAT_ID": 28521, "ELEMENT_SET_NO": 999, "REV_AT_EPOCH": 5979, "BSTAR": 4.6653e-05, "MEAN_MOTION_DOT": 7.2e-07, "MEAN_MOTION_DDOT": 0}, "tle": {"line1": "1 28521U 05002A   25360.01243757  .00000072  00000+0  46653-4 0  9996", "line2": "2 28521  82.9488 174.6231 0041430 102.9062 257.6734 13.87904624 59793"}}, "geometry": {"type": "Point", "coordinates": [-18.462145867904958, 60.80033957865151]}}, {"type": "Feature", "properties": {"norad_id": 32052, "name": "COSMOS 2429", "group": "musson", "lat": -14.113673480907014, "lon": -28.53416807491822, "alt_km": 958.2584250321779, "timestamp": "2025-12-26T09:30:53.907789+00:00", "meta": {"OBJECT_NAME": "COSMOS 2429", "OBJECT_ID": "2007-038A", "EPOCH": "2025-12-26T00:51:08.061408", "MEAN_MOTION": 13.75150636, "ECCENTRICITY": 0.0038445, "INCLINATION": 82.9809, "RA_OF_ASC_NODE": 333.5069, "ARG_OF_PERICENTER": 1.214, "MEAN_ANOMALY": 358.9103, "EPHEMERIS_TYPE": 0, "CLASSIFICATION_TYPE": "U", "NORAD_CAT_ID": 32052, "ELEMENT_SET_NO": 999, "REV_AT_EPOCH": 91785, "BSTAR": 4.6145e-05, "MEAN_MOTION_DOT": 6e-07, "MEAN_MOTION_DDOT": 0}, "tle": {"line1": "1 32052U 07038A   25360.03550997  .00000060  00000+0  46145-4 0  9993", "line2": "2 32052  82.9809 333.5069 0038445   1.2140 358.9103 13.75150636917857"}}, "geometry": {"type": "Point", "coordinates": [-28.53416807491822, -14.113673480907014]}}, {"type": "Feature", "properties": {"norad_id": 35635, "name": "COSMOS 2454", "group": "musson", "lat": -82.58844991269756, "lon": 50.1883803788705, "alt_km": 945.4404367176103, "timestamp": "2025-12-26T09:30:53.907799+00:00", "meta": {"OBJECT_NAME": "COSMOS 2454", "OBJECT_ID": "2009-039A", "EPOCH": "2025-12-26T00:09:39.039840", "MEAN_MOTION": 13.89930294, "ECCENTRICITY": 0.0019949, "INCLINATION": 82.9559, "RA_OF_ASC_NODE": 158.5879, "ARG_OF_PERICENTER": 37.9318, "MEAN_ANOMALY": 80.8204, "EPHEMERIS_TYPE": 0, "CLASSIFICATION_TYPE": "U", "NORAD_CAT_ID": 35635, "ELEMENT_SET_NO": 999, "REV_AT_EPOCH": 83334, "BSTAR": 5.4956e-05, "MEAN_MOTION_DOT": 8.4e-07, "MEAN_MOTION_DDOT": 0}, "tle": {"line1": "1 35635U 09039A   25360.00670185  .00000084  00000+0  54956-4 0  9990", "line2": "2 35635  82.9559 158.5879 0019949  37.9318  80.8204 13.89930294833349"}}, "geometry": {"type": "Point", "coordinates": [50.1883803788705, -82.58844991269756]}}, {"type": "Feature", "properties": {"norad_id": 36519, "name": "COSMOS 2463", "group": "musson", "lat": 49.18515072970131, "lon": -171.54960495008763, "alt_km": 1001.3694278780804, "timestamp": "2025-12-26T09:30:53.907810+00:00", "meta": {"OBJECT_NAME": "COSMOS 2463", "OBJECT_ID": "2010-017A", "EPOCH": "2025-12-26T03:57:12.978720", "MEAN_MOTION": 13.71650325, "ECCENTRICITY": 0.0034829, "INCLINATION": 82.9603, "RA_OF_ASC_NODE": 16.8464, "ARG_OF_PERICENTER": 249.4013, "MEAN_ANOMALY": 177.5936, "EPHEMERIS_TYPE": 0, "CLASSIFICATION_TYPE": "U", "NORAD_CAT_ID": 36519, "ELEMENT_SET_NO": 999, "REV_AT_EPOCH": 78421, "BSTAR": 3.5999e-05, "MEAN_MOTION_DOT": 4.7e-07, "MEAN_MOTION_DDOT": 0}, "tle": {"line1": "1 36519U 10017A   25360.16473355  .00000047  00000+0  35999-4 0  9992", "line2": "2 36519  82.9603  16.8464 0034829 249.4013 177.5936 13.71650325784215"}}, "geometry": {"type": "Point", "coordinates": [-171.54960495008763, 49.18515072970131]}}]}